NOAA 15                 
1 25338U 98030A   24020.82064054  .00000325  00000+0  15264-3 0  9998
2 25338  98.5857  50.9342 0010998  43.0017 317.2021 14.26476387336286
DMSP 5D-3 F16 (USA 172) 
1 28054U 03048A   24020.84620569  .00000323  00000+0  19437-3 0  9996
2 28054  99.0204  25.9333 0008163 110.3966  14.1127 14.13933256 45310
NOAA 18                 
1 28654U 05018A   24020.80581023  .00000357  00000+0  21469-3 0  9993
2 28654  98.8897  98.9411 0015137 122.6204 237.6431 14.13105005962308
METEOSAT-9 (MSG-2)      
1 28912U 05049B   24020.75648128  .00000124  00000+0  00000+0 0  9994
2 28912   7.3457  62.0980 0000699 218.9834 156.5504  1.00274252 66274
EWS-G1 (GOES 13)        
1 29155U 06018A   24020.54841043 -.00000224  00000+0  00000+0 0  9991
2 29155   2.2378  87.0713 0088033 248.5079 100.8639  0.99155517 34555
DMSP 5D-3 F17 (USA 191) 
1 29522U 06050A   24020.70462247  .00000358  00000+0  20980-3 0  9998
2 29522  98.7490  34.3198 0010628  47.3600 312.8468 14.14377273888201
FENGYUN 3A              
1 32958U 08026A   24020.82185083  .00000322  00000+0  17470-3 0  9994
2 32958  98.5860 332.3902 0009378 135.6033 224.5896 14.18999101810924
FENGYUN 2E              
1 33463U 08066A   24020.11091087 -.00000207  00000+0  00000+0 0  9992
2 33463   7.2111  61.4182 0001285 274.8524 269.3549  1.00274607 55288
NOAA 19                 
1 33591U 09005A   24020.80755886  .00000309  00000+0  19040-3 0  9998
2 33591  99.0710  74.8977 0013627 354.4553   5.6465 14.12910348770675
GOES 14                 
1 35491U 09033A   24020.60875375 -.00000061  00000+0  00000+0 0  9992
2 35491   0.0712 227.7070 0000598  97.7744 264.5781  1.00272380 53306
DMSP 5D-3 F18 (USA 210) 
1 35951U 09057A   24020.81309952  .00000513  00000+0  29297-3 0  9999
2 35951  98.7963 358.3132 0010280 226.1265 133.9059 14.13971890735397
EWS-G2 (GOES 15)        
1 36411U 10008A   24020.75970112  .00000039  00000+0  00000+0 0  9994
2 36411   0.0739 258.4364 0005901  10.0149 186.3095  1.00277184 50825
COMS 1                  
1 36744U 10032A   24020.55808118 -.00000343  00000+0  00000+0 0  9993
2 36744   2.5547  86.7120 0001086 197.1406 164.6114  1.00272874 42286
FENGYUN 3B              
1 37214U 10059A   24020.87997142  .00000207  00000+0  13170-3 0  9990
2 37214  99.0708  46.7936 0022692 149.6367 311.6848 14.14432996683285
SUOMI NPP               
1 37849U 11061A   24020.81395811  .00000194  00000+0  11284-3 0  9996
2 37849  98.7274 321.0385 0001156  61.8785 298.2508 14.19545506633815
FENGYUN 2F              
1 38049U 12002A   24020.05355716 -.00000358  00000+0  00000+0 0  9994
2 38049   5.2235  74.6125 0001472  38.3682 137.3998  1.00270817 44062
METEOSAT-10 (MSG-3)     
1 38552U 12035B   24020.24610456 -.00000004  00000+0  00000+0 0  9993
2 38552   2.6353  59.5810 0001203 231.9161 276.2732  1.00274456 42049
METOP-B                 
1 38771U 12049A   24020.79531947  .00000244  00000+0  13141-3 0  9997
2 38771  98.6508  81.1999 0001714  97.9715 262.1657 14.21457155588467
FENGYUN 3C              
1 39260U 13052A   24020.86683822  .00000225  00000+0  13433-3 0  9997
2 39260  98.4271  28.3580 0011799  39.7280 320.4758 14.16135380534334
METEOR-M 2              
1 40069U 14037A   24020.80339754  .00000304  00000+0  15967-3 0  9998
2 40069  98.4303  21.7328 0006859  73.1334 287.0595 14.20875690494555
HIMAWARI-8              
1 40267U 14060A   24020.58406815 -.00000272  00000+0  00000+0 0  9995
2 40267   0.0355 191.6159 0001183 100.8233 177.9126  1.00270136 33959
FENGYUN 2G              
1 40367U 14090A   24020.48080498 -.00000302  00000+0  00000+0 0  9997
2 40367   3.4097  83.2633 0000566  15.2810 293.6676  1.00268650 33186
METEOSAT-11 (MSG-4)     
1 40732U 15034A   24020.74925840  .00000065  00000+0  00000+0 0  9995
2 40732   1.0343  63.8219 0002523 200.9858 133.8300  1.00267436 31205
ELEKTRO-L 2             
1 41105U 15074A   24020.38647230 -.00000116  00000+0  00000+0 0  9996
2 41105   4.4620  81.2680 0003637 195.1254 327.5176  1.00271188 29695
HIMAWARI-9              
1 41836U 16064A   24020.58406907 -.00000271  00000+0  00000+0 0  9995
2 41836   0.0293 269.4329 0000912  11.5124 189.5023  1.00273477 26398
GOES 16                 
1 41866U 16071A   24020.44599587 -.00000243  00000+0  00000+0 0  9997
2 41866   0.0758 251.5923 0001225  72.6635 240.3909  1.00270919 26298
FENGYUN 4A              
1 41882U 16077A   24020.51907244 -.00000326  00000+0  00000+0 0  9994
2 41882   0.0852  63.4851 0005087 340.8932   6.4360  1.00272576 26115
CYGFM05                 
1 41884U 16078A   24020.76371825  .00010700  00000+0  43456-3 0  9996
2 41884  34.9531 158.2999 0012752 286.8176  73.1139 15.23722934393502
CYGFM04                 
1 41885U 16078B   24020.70508965  .00011086  00000+0  43968-3 0  9994
2 41885  34.9452 144.0664 0011454 308.9347  51.0346 15.24524615393637
CYGFM02                 
1 41886U 16078C   24020.75157752  .00010887  00000+0  43117-3 0  9998
2 41886  34.9556 146.2451 0012012 299.5233  60.4283 15.24569270393631
CYGFM01                 
1 41887U 16078D   24020.78427828  .00010661  00000+0  43628-3 0  9993
2 41887  34.9500 161.6463 0013293 284.9112  75.0130 15.23461193393469
